CAS-2T & KS-1Q          
1 41847U 16066G   21111.77463689  .00000197  00000-0  39631-4 0  9992
2 41847  98.6069 170.6491 0365842  29.7386 332.4059 14.38177364233733
NAYIF-1 (EO-88)         
1 42017U 17008BX  21111.71988733  .00003311  00000-0  12428-3 0  9990
2 42017  97.3198 180.3338 0004643 322.8005  37.2913 15.27892934232592
ZHUHAI-1 02 (CAS-4B)    
1 42759U 17034B   21111.55638909  .00000504  00000-0  43697-4 0  9995
2 42759  43.0161 133.8704 0008214 175.6362 326.2392 15.10161703212541
ZHUHAI-1 01 (CAS-4A)    
1 42761U 17034D   21111.54969182  .00000516  00000-0  44335-4 0  9990
2 42761  43.0164 133.0010 0009061 177.5711 319.7529 15.10243050212544
MAX VALIER SAT          
1 42778U 17036P   21111.55706384  .00002101  00000-0  90935-4 0  9993
2 42778  97.2615 162.0195 0012438  25.9194 334.2664 15.23437022212622
RADFXSAT (FOX-1B)       
1 43017U 17073E   21111.52365799  .00000990  00000-0  80738-4 0  9993
2 43017  97.7106  17.7627 0256458 125.9129 236.6180 14.79440612184700
FOX-1D (AO-92)          
1 43137U 18004AC  21111.45030618  .00002398  00000-0  98696-4 0  9998
2 43137  97.4093 186.0625 0010213  59.0525 301.1715 15.25068394181970
DIWATA-2B               
1 43678U 18084H   21111.77360426  .00000395  00000-0  45011-4 0  9992
2 43678  97.9142 236.7904 0008516 233.8469 126.1975 14.91734755134980
ES'HAIL 2               
1 43700U 18090A   21111.71660583  .00000143  00000-0  00000+0 0  9991
2 43700   0.0176 246.3304 0002620 175.6264  71.8214  1.00273518  9046
FOX-1CLIFF (AO-95)      
1 43770U 18099N   21111.77056835  .00000202  00000-0  23536-4 0  9992
2 43770  97.6685 183.2009 0013139 244.6140 115.3721 14.95269570129982
ITASAT 1                
1 43786U 18099AE  21111.43341748  .00000248  00000-0  27526-4 0  9995
2 43786  97.6705 183.5094 0013799 238.4673 121.5201 14.95571607129960
JY1SAT (JO-97)          
1 43803U 18099AX  21111.67406611  .00001106  00000-0  10408-3 0  9996
2 43803  97.6663 183.5036 0013811 236.6650 123.3249 14.95804290130005
UWE-4                   
1 43880U 18111E   21111.49525359  .00001274  00000-0  11619-3 0  9998
2 43880  97.6905  20.1917 0010611 299.5358  60.4806 14.96811600126561
PSAT2 (NO-104)          
1 44354U 19036R   21111.44108350  .00018344  00000-0  24586-3 0  9998
2 44354  28.5270 146.7639 0330749  18.5828 342.6533 15.12163907100338
BRICSAT2 (NO-103)       
1 44355U 19036S   21111.32367175  .00040817  00000-0  46386-3 0  9990
2 44355  28.5231 111.2315 0275865  76.4867 286.6307 15.26507623100683
JAISAT-1                
1 44419U 19038F   21111.45703334  .00002020  00000-0  11562-3 0  9990
2 44419  97.5829  76.3952 0022027 144.9225 215.3462 15.13602026 99171
DUCHIFAT-3              
1 44854U 19089C   21111.59236865  .00001047  00000-0  90176-4 0  9991
2 44854  36.9650  76.8808 0007887  30.4330 329.6878 14.99432442 74563
RS-44 & BREEZE-KM R/B   
1 44909U 19096E   21111.55362666  .00000023  00000-0  52786-4 0  9993
2 44909  82.5199 150.6228 0216584 225.9171 132.3926 12.79709650 61547
ORBITAL FACTORY 2 (OF-2)
1 45113U 19071C   21111.59131654  .00004091  00000-0  12807-3 0  9997
2 45113  51.6421 313.1373 0012719  89.0435 271.2005 15.35362937 68437
HUSKYSAT-1 (HO-107)     
1 45119U 19071J   21111.79947236  .00003656  00000-0  11545-3 0  9990
2 45119  51.6422 311.5240 0012066  86.4482 273.7880 15.35425456 68464
BY70-2                  
1 45857U 20042B   21111.73685431  .00001710  00000-0  25042-3 0  9995
2 45857  97.9847 188.0761 0012201  44.8142 315.4066 14.76869861 43171
SALSAT                  
1 46495U 20068K   21111.55581797  .00000846  00000-0  66656-4 0  9998
2 46495  97.6898  49.4020 0015231 264.3440  95.6047 15.03422287 30784
BY70-3                  
1 46839U 20079N   21111.80970304  .00005820  00000-0  18298-3 0  9991
2 46839  97.2421 186.7944 0008699  57.4242  39.0095 15.33315698 25526
RADFXSAT-2 (AO-109)     
1 47311U 21002C   21111.51665024  .00001414  00000-0  73929-4 0  9990
2 47311  60.6842 144.3083 0027719  13.8676 346.3165 15.21464286 14208
UVSQ-SAT                
1 47438U 21006AB  21111.70619696  .00001450  00000-0  85726-4 0  9997
2 47438  97.4924 173.9341 0011243 297.3186  62.6900 15.13011829 13477
